STARLINK-30227          
1 57505U 23113L   26068.22529593  .00032605  00000+0  15711-2 0  9993
2 57505  43.0053   4.8681 0002789 225.8359 134.2260 15.18160462143769
TRANSPORTER-15 OBJECT CY
1 66760U 25276CY  26068.70483155  .00006292  00000+0  30148-3 0  9999
2 66760  97.4254 144.0461 0000873 100.2944 259.8389 15.19273890 15326
